#dP2021  6  9  0  0  0.00000000      96 __u+U ITR00 EXT  IAC
## 2161 259200.00000000   900.00000000 59374 0.0000000000000
+  115   C06C07C08C09C11C12C13C14C16C19C20C21C22C23C24C25C26
+        C27C28C29C30C32C33C34C35C36C37C38C39C40C41C42C43C44
+        C45C46E01E02E03E04E05E07E08E09E11E12E13E14E15E18E19
+        E21E24E25E26E27E30E31E33E36G01G02G03G04G05G06G07G08
+        G09G10G12G13G14G15G16G17G18G19G20G21G22G23G24G25G26
+        G27G28G29G30G31G32J01J02J03R01R02R03R04R05R07R08R09
+        R11R12R13R14R15R16R17R18R19R20R21R22R24  0  0  0  0
++         9 10 12  9 10  8 13  9  9  9  8  8  9  9  8  7  7
++         8  8  8  9  9  8  9  8  7  8  8 10 11  9  7  9  8
++         9  8  9  9  8  8  9  8  7  8  8  7  8  7  7  8  8
++         9  8  9  8  7  7  9  8  8  7  7  7  8  8  7  7  8
++         8  7  8  7  9  9  7  8  8  7  8  9  7  7  8  8  9
++         6  8  8  7  7  7  8 11  8  7  8  9  8  8  7  8 10
++         8  8  8  8  7  8  7  7  7 10  8 10  8  0  0  0  0
%c M  cc GPS ccc cccc cccc cccc cccc ccccc ccccc ccccc ccccc
%c cc cc ccc ccc cccc cccc cccc cccc ccccc ccccc ccccc ccccc
%f  0.0000000  0.000000000  0.00000000000  0.000000000000000
%f  0.0000000  0.000000000  0.00000000000  0.000000000000000
%i    0    0    0    0      0      0      0      0         0
%i    0    0    0    0      0      0      0      0         0
/* IAC                                ULTRA-RAPID PREDICTION
/* S/V CLOCKS ARE ALIGNED TO GNSS TIME                      
/* G:C1WC2W R:C1PC2P E:C1XC5X C:C2IC6I J:C1CC2S             
/* PCV:IGS14_2148 OL/AL:FES2004  NONE     YN ORB:CoN CLK:CoN
*  2021 06 09 20 15  0.00000000
PC06 -23652.336054  27070.144619  22119.052628    483.915540
PC07 -13122.179910  37738.512164  14556.530263     90.969045
PC08  -7390.893783  20490.440959 -35973.963903   -893.378265
PC09  -8826.095481  27043.712736  31295.151529    460.401761
PC11  19856.037070   6748.980671 -18335.074267    390.277134
PC12   1433.538258  15478.673803 -23149.349792    850.350677
PC13   4750.999158  27523.907679 -31407.179667    293.724651
PC14  11866.783789  14150.521092  20967.525829    918.661628
PC16 -21467.918624  27312.766347  23873.517020   -888.791058
PC19 -15514.085365  -3257.597557 -22936.105018    866.468433
PC20  -7238.541490 -21149.539324 -16662.431505   -882.772512
PC21  -5844.335386  27303.008979     91.246184   -936.152939
PC22 -15097.082970  17097.382426 -16094.406606   -950.952624
PC23  16131.213004  -6371.154961 -21854.528918   -930.669813
PC24  16381.083981  21588.572052   6614.276543   -886.008727
PC25  23488.250851   9731.467234 -11487.421040   -903.525406
PC26   1519.684402  19873.392118  19513.231849    895.034287
PC27   9095.933057 -17163.842533  20018.918277    545.654938
PC28  24513.337463 -11812.359341   6177.857631    -64.253347
PC29 -25526.883663    506.738990  11249.530402    403.900719
PC30 -11535.538187 -12315.365502  22213.046294    470.106139
PC32   5676.685451 -27313.895106    -24.208453   -926.132210
PC33  15550.354995   3319.919516  22942.674253   -936.643129
PC34  12330.666560  11976.709427 -22000.853553   -654.108354
PC35 -24236.378844  12501.499457  -5847.125064   -240.911190
PC36 -23281.568485 -10567.383048  11205.449715   -727.189742
PC37   -226.900140 -19518.304448 -19928.297638   -877.757018
PC38  -5048.595067  24381.982232 -33985.774682    154.237714
PC39 -18107.152498  28763.630414  24866.878992     31.685417
PC40  -9342.829267  40822.050407   5571.597571    169.393500
PC41  15192.402145 -16791.731605  16360.632385   -946.733607
PC42   6850.793038  21734.056548  16168.432505   -913.465958
PC43  25363.855385     64.282319 -11674.503075   -769.003664
PC44  -8624.727685  17580.732268 -19881.354818    231.247756
PC45 -15958.578756   6432.376233  21980.337048    462.897940
PC46 -17156.873980 -21284.646624  -5671.378782    231.829023
PE01  12654.421747 -12158.454365 -23835.877083  -1125.821344
PE02 -12588.748785  12280.546155  23806.843369    224.978932
PE03 -21739.110937  19079.269104  -6326.029676   -440.188108
PE04  10131.546462 -25186.110857 -11780.971617   -788.975077
PE05 -20765.681518   1650.075106 -21022.426911   -274.238240
PE07   7700.860685  16555.272607  23312.408476   -547.922597
PE08  -9783.662757  25179.109887  12128.376694   5988.593733
PE09  -7834.538082 -16267.845246 -23441.640765   5639.134439
PE11 -18506.056886 -14802.407458  17711.717181   5871.736491
PE12   3657.943328 -15793.880768  24760.572308   5168.251562
PE13  18182.616663  14824.626083 -18056.001794    417.530218
PE14  13038.652354  15703.300527 -24698.748862  -1460.523022
PE15  -3521.024430  15744.841149 -24815.710401    809.694511
PE18 -17687.171311  -4308.864808  16556.618486  -1599.528299
PE19  22320.142066 -17512.218653   8455.315362    298.197585
PE21  18530.244130   8653.812843 -21400.284946   -669.751474
PE24 -13386.685776 -25795.777727   5654.326622   -946.026459
PE25 -18541.426028  -8867.174459  21307.027746   -536.434126
PE26  29210.514132   4789.676791    150.935626   1712.094837
PE27  13920.498922  25305.681951  -6470.351008    -50.776735
PE30    293.593790  26607.477905  12949.915583   2876.692196
PE31  -1172.002422 -26965.436483 -12142.474937   -482.042034
PE33  23118.888963  -7389.729686  16950.436171   -469.421362
PE36 -29130.748039  -5176.920958    677.053991   -218.723353
PG01  20897.520152  14342.501157  -8776.962166    663.485523
PG02   1321.714173 -15618.110376  22092.975482   -611.105801
PG03  12380.236730  19472.667194  13164.872000   -187.454819
PG04  13109.689945   8803.236764  21373.389928   -199.353742
PG05  -5590.013274 -25863.160795   -431.152117    -44.470375
PG06  13624.926620  -9597.711625  20753.419171     25.004188
PG07  25593.563210   6399.189531  -4517.234500    173.980307
PG08   4038.034144  15630.790641 -21043.471376    -24.462414
PG09  20567.077834  -1973.933839  16645.776286   -350.274161
PG10 -12586.556618  10606.111558 -20668.712678   -139.082816
PG12 -10114.053136 -21435.609417  11873.526234    -52.753801
PG13   5643.627332 -18409.739981 -18365.604039    142.798179
PG14  13330.773630 -10273.437020 -20548.829014     72.138978
PG15  -6625.219068 -15547.000858 -20790.679434   -143.519642
PG16   -792.411224  25955.691802   4009.545469   -338.703051
PG17  22604.794283 -13305.131890  -3750.730083    455.890782
PG18 -24977.770776  -3868.002738  -8288.270079    347.460987
PG19  20110.497679 -16643.389090   4229.975808     11.234829
PG20  -8279.534745 -25384.298088   -169.657488    521.324518
PG21  16065.154041  15225.336313 -14328.779469    123.943174
PG22   9933.218835  24396.572036   4360.145228   -592.637373
PG23 -15542.135863  -1961.714755 -21475.810003     98.568771
PG24 -17794.110874 -15320.561035 -13032.715513    124.268096
PG25 -15217.298543 -10210.758058  19055.725714    152.912541
PG26  -5614.630389  21820.510529  13787.744272     96.306697
PG27  -7076.191916  19899.759655 -16052.027131   -144.464694
PG28  10639.644183 -16624.377122 -17316.164262    557.345964
PG29 -20087.020754     55.069631  17352.634085   -361.432995
PG30  21153.666052  -3873.364684 -15674.617104   -436.958113
PG31 -11367.867649  11457.330634  21082.375238   -122.141556
PG32 -21135.599888  15787.422386  -2011.997215     19.023092
PJ01 -25329.484126  31372.625182  -7828.178138   -392.950921
PJ02 -24959.800905  23630.958696  29391.651017     -0.190089
PJ03 -34565.656752  19942.440281  -8820.786592     -7.644434
PR01  -2838.784246 -17155.150423 -18649.420311     80.631137
PR02 -12544.033448   2902.923169 -21963.173839    481.787314
PR03 -13491.398587  18723.805307 -10763.906164     37.401499
PR04  -6882.687349  23736.470538   6339.863096     90.567834
PR05   3503.885681  15534.916999  19934.948299     73.266280
PR07  13439.888763 -19139.263128  10276.595611    -42.388271
PR08   6864.742215 -23754.192737  -6245.787934    -59.439677
PR09  17228.092594   8821.096196 -16638.823856     -2.894603
PR11  -5006.843980 -18912.143613 -16348.564411    -10.673286
PR12 -15691.366930 -20114.829950    578.227312    235.855040
PR13 -17212.053241  -9461.736589  16258.853511    -56.030757
PR14  -8320.370020   7357.243437  22976.350933     65.164469
PR15   5044.473002  19263.031948  15966.135129    103.344255
PR16  16480.594164  19313.751565  -1643.908634    -16.168371
PR17 -21339.745397   7848.494187 -11598.026223    431.269146
PR18  -6330.348023  10761.712159 -22225.970449     79.473072
PR19  10913.230453   8582.086117 -21404.560460   -147.124123
PR20  24706.409766    711.547504  -6394.803371    -50.598552
PR21  20558.424478  -8125.180143  12699.520705   -215.345481
PR22   5414.204921 -10691.864366  22511.136940   -116.878620
PR24 -24882.390309   -103.389917   5652.636704     45.887286
EOF
